{
    "links": {
        "self": "http://www.neowsapp.com/rest/v1/neo/3549619?api_key=iIulBulltgU6a56xZRHN4H3l9WmuAYTsLGpBGhQ2"
    },
    "id": "3549619",
    "neo_reference_id": "3549619",
    "name": "(2010 UE)",
    "designation": "2010 UE",
    "nasa_jpl_url": "http://ssd.jpl.nasa.gov/sbdb.cgi?sstr=3549619",
    "absolute_magnitude_h": 29.6,
    "estimated_diameter": {
        "kilometers": {
            "estimated_diameter_min": 0.0031956189,
            "estimated_diameter_max": 0.007145621
        },
        "meters": {
            "estimated_diameter_min": 3.1956188672,
            "estimated_diameter_max": 7.1456210173
        },
        "miles": {
            "estimated_diameter_min": 0.0019856649,
            "estimated_diameter_max": 0.0044400817
        },
        "feet": {
            "estimated_diameter_min": 10.4843142043,
            "estimated_diameter_max": 23.4436392583
        }
    },
    "is_potentially_hazardous_asteroid": false,
    "close_approach_data": [
        {
            "close_approach_date": "2010-08-26",
            "close_approach_date_full": "2010-Aug-26 07:12",
            "epoch_date_close_approach": 1282806720000,
            "relative_velocity": {
                "kilometers_per_second": "12.3712057271",
                "kilometers_per_hour": "44536.3406177368",
                "miles_per_hour": "27673.1500910598"
            },
            "miss_distance": {
                "astronomical": "0.0870290047",
                "lunar": "33.8542828283",
                "kilometers": "13019353.731339989",
                "miles": "8089851.2772662882"
            },
            "orbiting_body": "Venus"
        },
        {
            "close_approach_date": "2010-10-16",
            "close_approach_date_full": "2010-Oct-16 10:16",
            "epoch_date_close_approach": 1287224160000,
            "relative_velocity": {
                "kilometers_per_second": "17.3234538197",
                "kilometers_per_hour": "62364.4337508584",
                "miles_per_hour": "38750.8338492487"
            },
            "miss_distance": {
                "astronomical": "0.0007663984",
                "lunar": "0.2981289776",
                "kilometers": "114651.568211408",
                "miles": "71241.1809891104"
            },
            "orbiting_body": "Earth"
        },
        {
            "close_approach_date": "2010-10-16",
            "close_approach_date_full": "2010-Oct-16 10:39",
            "epoch_date_close_approach": 1287225540000,
            "relative_velocity": {
                "kilometers_per_second": "16.3481957195",
                "kilometers_per_hour": "58853.5045902313",
                "miles_per_hour": "36569.279004969"
            },
            "miss_distance": {
                "astronomical": "0.0019454706",
                "lunar": "0.7567880634",
                "kilometers": "291038.257907622",
                "miles": "180842.7876723036"
            },
            "orbiting_body": "Moon"
        }
    ],
    "orbital_data": {
        "orbit_id": "6",
        "orbit_determination_date": "2017-04-06 08:56:12",
        "first_observation_date": "2010-10-17",
        "last_observation_date": "2010-10-17",
        "data_arc_in_days": null,
        "observations_used": 16,
        "orbit_uncertainty": "9",
        "minimum_orbit_intersection": ".000156526",
        "jupiter_tisserand_invariant": "3.067",
        "epoch_osculation": "2455486.5",
        "eccentricity": ".6920180195955653",
        "semi_major_axis": "2.521493564151541",
        "inclination": "3.036083832306926",
        "ascending_node_longitude": "22.92121864962859",
        "orbital_period": "1462.464129919477",
        "perihelion_distance": ".7765745814644281",
        "perihelion_argument": "297.1747120968192",
        "aphelion_distance": "4.266412546838653",
        "perihelion_time": "2455446.018291088148",
        "mean_anomaly": "9.964972753943119",
        "mean_motion": ".2461598836067326",
        "equinox": "J2000",
        "orbit_class": {
            "orbit_class_type": "APO",
            "orbit_class_description": "Near-Earth asteroid orbits which cross the Earth’s orbit similar to that of 1862 Apollo",
            "orbit_class_range": "a (semi-major axis) > 1.0 AU; q (perihelion) < 1.017 AU"
        }
    },
    "is_sentry_object": false
}